CZ-3C R/B               
1 65487U 25196B   25251.41819693  .00025655  00000+0  33348-2 0  9994
2 65487  28.4934  20.6057 6976947 130.0484 315.6750  2.68841397   106
2025-197A               
1 65488U 25197A   25251.16062515  .00005816  00000+0  26729-3 0  9994
2 65488  97.4119  76.9324 0014067 275.9123  84.0509 15.20666998   415
2025-197B               
1 65489U 25197B   25251.16057737  .00005565  00000+0  25580-3 0  9990
2 65489  97.4117  76.9325 0013220 277.6459  82.3275 15.20695336   404
2025-197C               
1 65490U 25197C   25251.16005615  .00005255  00000+0  23957-3 0  9992
2 65490  97.4119  76.9333 0014092 282.0844  77.8812 15.20990825   398
2025-197D               
1 65491U 25197D   25251.15999517  .00006845  00000+0  31070-3 0  9996
2 65491  97.4117  76.9332 0013873 282.8608  77.1078 15.21031443   398
YAOGAN-40 03A           
1 65544U 25199A   25256.19254137  .00000305  00000+0  11902-3 0  9995
2 65544  85.9956 168.3768 0011524 233.2534 126.7600 14.26258949   936
YAOGAN-40 03B           
1 65545U 25199B   25253.73619352  .00000034  00000+0  60911-5 0  9992
2 65545  85.9973 169.5026 0011215 250.6210 109.3769 14.26539319   584
YAOGAN-40 03C           
1 65546U 25199C   25254.36725880  .00000430  00000+0  17292-3 0  9999
2 65546  85.9973 169.2127 0008931 272.7025  87.3143 14.25730713   675
CZ-6A DEB               
1 65547U 25199D   25256.25918209  .00000419  00000+0  16167-3 0  9996
2 65547  85.9975 168.3440 0014854 242.4488 117.5195 14.27734582   947
CZ-6A DEB               
1 65548U 25199E   25256.18946696  .00000166  00000+0  60277-4 0  9991
2 65548  85.9961 168.3751 0010024 248.9111 111.1008 14.26935074   892
CZ-6A R/B               
1 65549U 25199F   25256.23079780  .00000466  00000+0  81049-4 0  9992
2 65549  86.0176 168.2234 0070179  48.7853 311.9379 14.64049610   956
GEESAT-5 A              
1 65550U 25201A   25254.55220813  .00000644  00000+0  89193-4 0  9992
2 65550  49.9979 252.4599 0014475 298.8804  61.0685 14.90791970   414
GEESAT-5 B              
1 65551U 25201B   25254.28401313  .00000514  00000+0  76612-4 0  9997
2 65551  49.9876 253.7163 0011087 297.7267  62.2549 14.90473928   365
GEESAT-5 C              
1 65552U 25201C   25254.01570034  .00000563  00000+0  79698-4 0  9997
2 65552  49.9852 254.9747 0011498 302.1240  57.8585 14.91538973   328
GEESAT-5 D              
1 65553U 25201D   25254.01575154  .00000540  00000+0  78812-4 0  9998
2 65553  49.9945 254.9727 0012755 300.9409  59.0278 14.90771437   326
GEESAT-5 E              
1 65554U 25201E   25255.48960543  .00000561  00000+0  79485-4 0  9991
2 65554  49.9874 248.0515 0012091 306.0859  53.8962 14.91554495   546
GEESAT-5 F              
1 65555U 25201F   25255.69046882 -.00000055  00000+0  18806-4 0  9995
2 65555  49.9814 247.1102 0012855 309.6459  50.3348 14.91533426   570
GEESAT-5 G              
1 65556U 25201G   25255.28848952  .00000569  00000+0  80334-4 0  9993
2 65556  49.9843 248.9976 0013223 307.0808  52.8924 14.91534191   512
GEESAT-5 H              
1 65557U 25201H   25254.01553069  .00000147  00000+0  39329-4 0  9996
2 65557  49.9965 255.0100 0015329 309.1969  50.7610 14.90786516   334
GEESAT-5 J              
1 65558U 25201J   25254.14933698  .00000158  00000+0  39433-4 0  9999
2 65558  49.9863 254.3452 0013350 299.4970  60.4640 14.92091200   342
GEESAT-5 K              
1 65559U 25201K   25254.01540197  .00000152  00000+0  39493-4 0  9994
2 65559  49.9838 254.9714 0014406 304.7326  55.2258 14.91276841   320
JIELONG-3 DEB           
1 65560U 25201L   25255.59112516  .00071412  00000+0  13405-2 0  9990
2 65560  50.0768 246.4945 0187038 359.5993   0.4788 15.31086069   572
JIELONG-3 DEB           
1 65561U 25201M   25254.28572302  .00018526  00000+0  35827-3 0  9999
2 65561  50.0812 252.9981 0187753 354.6065   5.2870 15.30890584   372
JIELONG-3 R/B           
1 65562U 25201N   25254.35778919  .01503159  10638-4  53452-3 0  9999
2 65562  50.1447 251.9529 0292240 356.4634   3.4274 15.71304813   395
YAOGAN-45               
1 65563U 25202A   25252.65735740  .00038817  00000+0  40609-3 0  9997
2 65563  20.0005  35.8037 3556493 127.8642 269.9958  8.41043634    62
CZ-7A R/B               
1 65564U 25202B   25254.39572250  .01132414 -10468-5  24484-3 0  9994
2 65564  20.0832  29.7830 3522366 136.7802 257.0182  8.63078683   213
PROGRESS-MS 32          
1 65586U 25204A   25255.95904909  .00188300  27444-4  25228-3 0  9994
2 65586  51.6351 232.3357 0010610 156.3924 203.7578 16.06006657   218
SL-4 R/B                
1 65587U 25204B   25254.90075412  .00594588  12038-4  16965-3 0  9997
2 65587  51.6579 238.0772 0024229  75.6431 284.7277 16.25950101    41
NUSANTARA LIMA (NUSANT*)
1 65588U 25205A   25255.10218750  .00000041  00000+0  00000+0 0  9992
2 65588  26.4759 204.2219 5387164 174.0939   9.9928  5.04113332    14
